NORAD_CAT_ID,OBJECT_NAME,OBJECT_TYPE,EPOCH,MEAN_MOTION,ECCENTRICITY,INCLINATION,RA_OF_ASC_NODE,ARG_OF_PERICENTER,MEAN_ANOMALY,BSTAR,MEAN_MOTION_DOT,MEAN_MOTION_DDOT,TLE_LINE0,TLE_LINE1,TLE_LINE2,SEMIMAJOR_AXIS,PERIOD,APOGEE,PERIGEE,DECAYED
54191.0,STARLINK-4619,PAYLOAD,2023-12-13 11:31:23,15.08843306,0.000175,53.2196,62.9566,59.3178,300.7987,3.4811e-05,2.66e-06,0.0,0 STARLINK-4619,1 54191U 22141AL  23347.48013064  .00000266  00000-0  34811-4 0  9990,2 54191  53.2196  62.9566 0001750  59.3178 300.7987 15.08843306 62626,6917.87,95.437,540.946,538.525,0.0
54191.0,STARLINK-4619,PAYLOAD,2023-12-14 11:22:10,15.08845883,0.0001411,53.2183,58.4978,69.6724,290.4419,2.7886e-05,1.56e-06,0.0,0 STARLINK-4619,1 54191U 22141AL  23348.47372692  .00000156  00000-0  27886-4 0  9997,2 54191  53.2183  58.4978 0001411  69.6724 290.4419 15.08845883 62777,6917.862,95.437,540.704,538.751,0.0
54191.0,STARLINK-4619,PAYLOAD,2023-12-15 11:12:57,15.08838419,0.0001394,53.2182,54.0347,93.5863,266.5289,-4.5287e-05,-1.009e-05,0.0,0 STARLINK-4619,1 54191U 22141AL  23349.46733300 -.00001009  00000-0 -45287-4 0  9999,2 54191  53.2182  54.0347 0001394  93.5863 266.5289 15.08838419 63157,6917.885,95.438,540.715,538.786,0.0
54191.0,STARLINK-4619,PAYLOAD,2023-12-16 11:03:44,15.08839333,0.0001569,53.2193,49.5785,109.7708,250.3453,2.0456e-05,3.8e-07,0.0,0 STARLINK-4619,1 54191U 22141AL  23350.46093208  .00000038  00000-0  20456-4 0  9997,2 54191  53.2193  49.5785 0001569 109.7708 250.3453 15.08839333 63077,6917.882,95.438,540.833,538.662,0.0
54191.0,STARLINK-4619,PAYLOAD,2023-12-17 09:19:08,15.08834158,0.0001567,53.2193,45.4142,109.6434,250.4728,4.8879e-05,4.9e-06,0.0,0 STARLINK-4619,1 54191U 22141AL  23351.38829705  .00000490  00000-0  48879-4 0  9999,2 54191  53.2193  45.4142 0001567 109.6434 250.4728 15.08834158 63449,6917.898,95.438,540.847,538.679,0.0
54191.0,STARLINK-4619,PAYLOAD,2023-12-18 10:45:18,15.08847453,0.0001434,53.2194,40.6555,92.0321,268.0835,0.00010924,1.451e-05,0.0,0 STARLINK-4619,1 54191U 22141AL  23352.44812875  .00001451  00000-0  10924-3 0  9994,2 54191  53.2194  40.6555 0001434  92.0321 268.0835 15.08847453 63602,6917.858,95.437,540.715,538.731,0.0
54191.0,STARLINK-4619,PAYLOAD,2023-12-19 10:36:06,15.08838759,0.000149,53.219,36.1947,84.3334,275.7828,3.4191e-05,2.56e-06,0.0,0 STARLINK-4619,1 54191U 22141AL  23353.44174025  .00000256  00000-0  34191-4 0  9998,2 54191  53.2190  36.1947 0001490  84.3334 275.7828 15.08838759 63755,6917.884,95.438,540.78,538.718,0.0
54191.0,STARLINK-4619,PAYLOAD,2023-12-20 10:26:53,15.08842926,0.0001944,53.22,31.7349,66.297,293.8226,2.3548e-06,-2.51e-06,0.0,0 STARLINK-4619,1 54191U 22141AL  23354.43534230 -.00000251  00000-0  23548-5 0  9997,2 54191  53.2200  31.7349 0001944  66.2970 293.8226 15.08842926 63678,6917.871,95.437,541.081,538.392,0.0
54191.0,STARLINK-4619,PAYLOAD,2023-12-21 08:42:17,15.08846347,0.0002165,53.2199,27.5703,66.8418,293.2802,0.00015415,2.166e-05,0.0,0 STARLINK-4619,1 54191U 22141AL  23355.36269837  .00002166  00000-0  15415-3 0  9996,2 54191  53.2199  27.5703 0002165  66.8418 293.2802 15.08846347 64048,6917.861,95.437,541.224,538.228,0.0
54191.0,STARLINK-4619,PAYLOAD,2023-12-22 08:33:04,15.08843318,0.0001715,53.2197,23.1095,98.9547,261.1639,2.9822e-05,1.87e-06,0.0,0 STARLINK-4619,1 54191U 22141AL  23356.35630260  .00000187  00000-0  29822-4 0  9997,2 54191  53.2197  23.1095 0001715  98.9547 261.1639 15.08843318 64194,6917.87,95.437,540.922,538.549,0.0
54191.0,STARLINK-4619,PAYLOAD,2023-12-23 11:34:37,15.08853057,0.0001768,53.2191,18.0503,104.2396,255.8792,-0.00011469,-2.114e-05,0.0,0 STARLINK-4619,1 54191U 22141AL  23357.48237967 -.00002114  00000-0 -11469-3 0  9990,2 54191  53.2191  18.0503 0001768 104.2396 255.8792 15.08853057 64366,6917.84,95.437,540.929,538.482,0.0
54191.0,STARLINK-4619,PAYLOAD,2023-12-24 11:25:24,15.0883732,0.0001615,53.2192,13.5892,103.1522,256.9651,0.00018627,2.678e-05,0.0,0 STARLINK-4619,1 54191U 22141AL  23358.47598349  .00002678  00000-0  18627-3 0  9990,2 54191  53.2192  13.5892 0001615 103.1522 256.9651 15.08837320 64516,6917.889,95.438,540.871,538.636,0.0
54191.0,STARLINK-4619,PAYLOAD,2023-12-25 06:30:03,15.08832641,0.0002025,53.2194,10.0165,125.7224,234.3956,-4.3137e-05,-9.75e-06,0.0,0 STARLINK-4619,1 54191U 22141AL  23359.27087501 -.00000975  00000-0 -43137-4 0  9997,2 54191  53.2194  10.0165 0002025 125.7224 234.3956 15.08832641 64630,6917.903,95.438,541.169,538.367,0.0
54191.0,STARLINK-4619,PAYLOAD,2023-12-26 01:34:40,15.08843472,0.0001537,53.2188,6.452,104.4589,255.6573,3.0497e-05,1.97e-06,0.0,0 STARLINK-4619,1 54191U 22141AL  23360.06575179  .00000197  00000-0  30497-4 0  9998,2 54191  53.2188   6.4520 0001537 104.4589 255.6573 15.08843472 64750,6917.87,95.437,540.798,538.671,0.0
54191.0,STARLINK-4619,PAYLOAD,2023-12-26 07:56:13,15.08851331,0.0001465,53.2187,5.2657,90.8821,269.2339,0.00011735,1.581e-05,0.0,0 STARLINK-4619,1 54191U 22141AL  23360.33070661  .00001581  00000-0  11735-3 0  9995,2 54191  53.2187   5.2657 0001465  90.8821 269.2339 15.08851331 64792,6917.846,95.437,540.724,538.697,0.0
54191.0,STARLINK-4619,PAYLOAD,2023-12-26 23:50:05,15.08840347,0.0001566,53.2187,2.2982,69.7711,290.3449,0.00025107,3.71e-05,0.0,0 STARLINK-4619,1 54191U 22141AL  23360.99311406  .00003710  00000-0  25107-3 0  9996,2 54191  53.2187   2.2982 0001566  69.7711 290.3449 15.08840347 64898,6917.879,95.438,540.828,538.661,0.0
54191.0,STARLINK-4619,PAYLOAD,2023-12-27 07:47:00,15.08841053,0.0001621,53.2192,0.8109,83.0288,277.0889,0.00019772,2.86e-05,0.0,0 STARLINK-4619,1 54191U 22141AL  23361.32431408  .00002860  00000-0  19772-3 0  9995,2 54191  53.2192   0.8109 0001621  83.0288 277.0889 15.08841053 64715,6917.877,95.437,540.864,538.621,0.0
54191.0,STARLINK-4619,PAYLOAD,2023-12-28 04:27:01,15.08840303,0.0001638,53.2196,356.9428,99.0099,261.1078,1.575e-06,-2.63e-06,0.0,0 STARLINK-4619,1 54191U 22141AL  23362.18543675 -.00000263  00000-0  15750-5 0  9990,2 54191  53.2196 356.9428 0001638  99.0099 261.1078 15.08840303 65074,6917.879,95.438,540.878,538.611,0.0
54191.0,STARLINK-4619,PAYLOAD,2023-12-28 09:13:11,15.08843237,0.0001557,53.2191,356.05,77.8457,282.271,-4.372e-06,-3.58e-06,0.0,0 STARLINK-4619,1 54191U 22141AL  23362.38415539 -.00000358  00000-0 -43720-5 0  9993,2 54191  53.2191 356.0500 0001557  77.8457 282.2710 15.08843237 64876,6917.87,95.437,540.813,538.658,0.0
54191.0,STARLINK-4619,PAYLOAD,2023-12-29 09:03:57,15.08846844,0.0001475,53.2185,351.5884,100.4939,259.6219,4.8404e-05,4.83e-06,0.0,0 STARLINK-4619,1 54191U 22141AL  23363.37775064  .00000483  00000-0  48404-4 0  9995,2 54191  53.2185 351.5884 0001475 100.4939 259.6219 15.08846844 65253,6917.859,95.437,540.745,538.704,0.0
54191.0,STARLINK-4619,PAYLOAD,2023-12-30 04:08:35,15.0883269,0.0001489,53.2182,348.0196,88.8635,271.2528,0.0002681,3.981e-05,0.0,0 STARLINK-4619,1 54191U 22141AL  23364.17263239  .00003981  00000-0  26810-3 0  9992,2 54191  53.2182 348.0196 0001489  88.8635 271.2528 15.08832690 65374,6917.903,95.438,540.798,538.738,0.0
54191.0,STARLINK-4619,PAYLOAD,2023-12-30 08:54:45,15.08807978,0.0001605,53.2195,347.1257,87.9034,272.2142,0.0007404,0.00011505,0.0,0 STARLINK-4619,1 54191U 22141AL  23364.37136246  .00011505  00000-0  74040-3 0  9990,2 54191  53.2195 347.1257 0001605  87.9034 272.2142 15.08807978 65407,6917.978,95.44,540.954,538.733,0.0
54191.0,STARLINK-4619,PAYLOAD,2023-12-31 03:59:22,15.08839135,0.0001376,53.2179,343.5602,96.6245,263.4904,-9.7137e-06,-4.43e-06,0.0,0 STARLINK-4619,1 54191U 22141AL  23365.16623677 -.00000443  00000-0 -97137-5 0  9992,2 54191  53.2179 343.5602 0001376  96.6245 263.4904 15.08839135 65520,6917.883,95.438,540.7,538.796,0.0
54191.0,STARLINK-4619,PAYLOAD,2023-12-31 21:28:37,15.08837225,0.0001427,53.2184,340.2906,88.9901,271.1255,1.424e-06,-2.65e-06,0.0,0 STARLINK-4619,1 54191U 22141AL  23365.89487849 -.00000265  00000-0  14240-5 0  9996,2 54191  53.2184 340.2906 0001427  88.9901 271.1255 15.08837225 65407,6917.889,95.438,540.741,538.767,0.0
54191.0,STARLINK-4619,PAYLOAD,2024-01-01 03:50:09,15.08841632,0.0001397,53.2182,339.0996,92.8365,267.2787,-4.6246e-05,-1.024e-05,0.0,0 STARLINK-4619,1 54191U 22141AL  24001.15983756 -.00001024  00000-0 -46246-4 0  9996,2 54191  53.2182 339.0996 0001397  92.8365 267.2787 15.08841632 65441,6917.875,95.437,540.707,538.774,0.0
54191.0,STARLINK-4619,PAYLOAD,2024-01-02 03:40:56,15.0883401,0.00014,53.2175,334.6387,111.5518,248.5623,0.0003366,5.072e-05,0.0,0 STARLINK-4619,1 54191U 22141AL  24002.15343356  .00005072  00000-0  33660-3 0  9993,2 54191  53.2175 334.6387 0001400 111.5518 248.5623 15.08834010 65827,6917.899,95.438,540.732,538.795,0.0
54191.0,STARLINK-4619,PAYLOAD,2024-01-02 05:16:19,15.08846929,0.0001344,53.2176,334.3413,107.8564,252.2575,0.00023902,3.519e-05,0.0,0 STARLINK-4619,1 54191U 22141AL  24002.21966875  .00003519  00000-0  23902-3 0  9999,2 54191  53.2176 334.3413 0001344 107.8564 252.2575 15.08846929 65832,6917.859,95.437,540.654,538.794,0.0
54191.0,STARLINK-4619,PAYLOAD,2024-01-03 03:31:44,15.08836818,0.0001467,53.2177,330.1783,84.2183,275.8977,8.2083e-05,1.019e-05,0.0,0 STARLINK-4619,1 54191U 22141AL  24003.14704144  .00001019  00000-0  82083-4 0  9990,2 54191  53.2177 330.1783 0001467  84.2183 275.8977 15.08836818 65976,6917.89,95.438,540.77,538.74,0.0
54191.0,STARLINK-4619,PAYLOAD,2024-01-03 06:42:30,15.08837995,0.0001504,53.2172,329.5839,82.505,277.6113,2.9103e-05,1.75e-06,0.0,0 STARLINK-4619,1 54191U 22141AL  24003.27951807  .00000175  00000-0  29103-4 0  9990,2 54191  53.2172 329.5839 0001504  82.5050 277.6113 15.08837995 65767,6917.887,95.438,540.792,538.711,0.0
54191.0,STARLINK-4619,PAYLOAD,2024-01-04 03:22:30,15.08846918,0.0001523,53.2173,325.7163,88.0894,272.0273,5.6933e-05,6.18e-06,0.0,0 STARLINK-4619,1 54191U 22141AL  24004.14063422  .00000618  00000-0  56933-4 0  9997,2 54191  53.2173 325.7163 0001523  88.0894 272.0273 15.08846918 66126,6917.859,95.437,540.778,538.671,0.0
